{
    "links": {
        "self": "http://www.neowsapp.com/rest/v1/neo/3844020?api_key=iIulBulltgU6a56xZRHN4H3l9WmuAYTsLGpBGhQ2"
    },
    "id": "3844020",
    "neo_reference_id": "3844020",
    "name": "(2019 SF3)",
    "designation": "2019 SF3",
    "nasa_jpl_url": "http://ssd.jpl.nasa.gov/sbdb.cgi?sstr=3844020",
    "absolute_magnitude_h": 23.9,
    "estimated_diameter": {
        "kilometers": {
            "estimated_diameter_min": 0.04411182,
            "estimated_diameter_max": 0.0986370281
        },
        "meters": {
            "estimated_diameter_min": 44.1118199997,
            "estimated_diameter_max": 98.6370281305
        },
        "miles": {
            "estimated_diameter_min": 0.0274098057,
            "estimated_diameter_max": 0.0612901888
        },
        "feet": {
            "estimated_diameter_min": 144.7238235278,
            "estimated_diameter_max": 323.6123073718
        }
    },
    "is_potentially_hazardous_asteroid": false,
    "close_approach_data": [
        {
            "close_approach_date": "2019-09-21",
            "close_approach_date_full": "2019-Sep-21 02:05",
            "epoch_date_close_approach": 1569031500000,
            "relative_velocity": {
                "kilometers_per_second": "6.0860548953",
                "kilometers_per_hour": "21909.7976230601",
                "miles_per_hour": "13613.8961952842"
            },
            "miss_distance": {
                "astronomical": "0.0782772959",
                "lunar": "30.4498681051",
                "kilometers": "11710116.735999733",
                "miles": "7276329.1318849954"
            },
            "orbiting_body": "Earth"
        },
        {
            "close_approach_date": "2173-10-08",
            "close_approach_date_full": "2173-Oct-08 22:41",
            "epoch_date_close_approach": 6430401660000,
            "relative_velocity": {
                "kilometers_per_second": "9.2827453615",
                "kilometers_per_hour": "33417.8833015514",
                "miles_per_hour": "20764.5730992334"
            },
            "miss_distance": {
                "astronomical": "0.1646295423",
                "lunar": "64.0408919547",
                "kilometers": "24628228.867154901",
                "miles": "15303271.7959075938"
            },
            "orbiting_body": "Earth"
        },
        {
            "close_approach_date": "2176-07-29",
            "close_approach_date_full": "2176-Jul-29 08:30",
            "epoch_date_close_approach": 6518910600000,
            "relative_velocity": {
                "kilometers_per_second": "15.8898901557",
                "kilometers_per_hour": "57203.6045605409",
                "miles_per_hour": "35544.0952892983"
            },
            "miss_distance": {
                "astronomical": "0.370160302",
                "lunar": "143.992357478",
                "kilometers": "55375192.73775674",
                "miles": "34408549.221613412"
            },
            "orbiting_body": "Earth"
        }
    ],
    "orbital_data": {
        "orbit_id": "8",
        "orbit_determination_date": "2019-10-21 05:58:22",
        "first_observation_date": "2019-09-17",
        "last_observation_date": "2019-10-20",
        "data_arc_in_days": 33,
        "observations_used": 54,
        "orbit_uncertainty": "7",
        "minimum_orbit_intersection": ".0630188",
        "jupiter_tisserand_invariant": "3.658",
        "epoch_osculation": "2459000.5",
        "eccentricity": ".4745010988041179",
        "semi_major_axis": "2.034948782689269",
        "inclination": "1.51424660850251",
        "ascending_node_longitude": "166.7753910645004",
        "orbital_period": "1060.299731381652",
        "perihelion_distance": "1.069363349293109",
        "perihelion_argument": "181.9629554277479",
        "aphelion_distance": "3.000534216085429",
        "perihelion_time": "2458741.465173268802",
        "mean_anomaly": "87.94922309535617",
        "mean_motion": ".3395266351061811",
        "equinox": "J2000",
        "orbit_class": {
            "orbit_class_type": "AMO",
            "orbit_class_description": "Near-Earth asteroid orbits similar to that of 1221 Amor",
            "orbit_class_range": "1.017 AU < q (perihelion) < 1.3 AU"
        }
    },
    "is_sentry_object": false
}